ONEWEB-0340             
1 49206U 21083W   26189.91007849  .00000136  00000+0  31254-3 0  9996
2 49206  87.9184 331.1367 0001872  97.3474 262.7871 13.18687521232839
ONEWEB-0341             
1 49207U 21083X   26189.91682012 -.00000008  00000+0 -53946-4 0  9991
2 49207  87.9177 331.1371 0002299  95.6566 264.4829 13.18686885232850
ONEWEB-0342             
1 49208U 21083Y   26189.79004418  .00000093  00000+0  19709-3 0  9996
2 49208  87.9190 270.1323 0002101 102.4325 257.7044 13.20772408239634
ONEWEB-0343             
1 49209U 21083Z   26189.92525493  .00000015  00000+0  53251-5 0  9999
2 49209  87.9186 331.1329 0002069 105.5132 254.6228 13.18687301232904
ONEWEB-0344             
1 49210U 21083AA  26189.90663844 -.00000168  00000+0 -49601-3 0  9995
2 49210  87.8965 315.9165 0002215  93.1964 266.9419 13.13468548233742
ONEWEB-0345             
1 49211U 21083AB  26189.89817673  .00000041  00000+0  77778-4 0  9990
2 49211  87.8982 315.9015 0002219  97.8615 262.2766 13.13468951233757
ONEWEB-0346             
1 49212U 21083AC  26189.92188142  .00000008  00000+0 -12276-4 0  9993
2 49212  87.9182 331.1332 0001718  76.0609 284.0714 13.18687105232841
ONEWEB-0348             
1 49213U 21083AD  26189.62843232  .00000123  00000+0  27103-3 0  9990
2 49213  87.9197 270.1699 0002272  84.7172 275.4221 13.20772749239647
ONEWEB-0350             
1 49214U 21083AE  26189.91690542 -.00000279  00000+0 -80061-3 0  9993
2 49214  87.8977 315.9031 0001414 126.3037 233.8223 13.13422861233789
ONEWEB-0351             
1 49215U 21083AF  26189.77306122 -.00000012  00000+0 -60993-4 0  9994
2 49215  87.9209 270.1361 0002684 107.3759 252.7668 13.20770475239624
ONEWEB-0352             
1 49216U 21083AG  26189.88802216  .00000321  00000+0  84538-3 0  9993
2 49216  87.8990 315.9109 0002306 100.7078 259.4311 13.13468134233879
ONEWEB-0354             
1 49217U 21083AH  26189.72438293 -.00000018  00000+0 -75095-4 0  9991
2 49217  87.9198 270.1466 0002318  89.0709 271.0690 13.20770851239654
ONEWEB-0355             
1 49218U 21083AJ  26189.84137382 -.00000339  00000+0 -96706-3 0  9997
2 49218  87.8966 315.9239 0002111 100.9390 259.1977 13.13296322233740
ONEWEB-0357             
1 49219U 21083AK  26189.72100034 -.00000160  00000+0 -42643-3 0  9992
2 49219  87.9191 270.1416 0002170 103.4073 256.7303 13.20771140239658
ONEWEB-0332             
1 49279U 21090A   26189.75996857 -.00000226  00000+0 -64383-3 0  9993
2 49279  87.8968 285.4110 0001947 106.4800 253.6544 13.14502736230411
ONEWEB-0347             
1 49280U 21090B   26189.78665903  .00000104  00000+0  22391-3 0  9999
2 49280  87.9183 270.1372 0001906 105.0672 255.0672 13.20769698233893
